{
  "type": "FeatureCollection",
  "features": [
    {
      "type": "Feature",
      "properties": {
        "norad_id": 30004,
        "name": "FENGYUN 1C DEB",
        "group": "fengyun-1c-debris",
        "lat": 80.18414817642864,
        "lon": 65.71688297942373,
        "alt_km": 846.4046634279293,
        "timestamp": "2025-12-20T09:36:01.918506+00:00",
        "meta_object_name": "FENGYUN 1C DEB",
        "meta_object_id": "1999-025MD",
        "meta_epoch": "2025-12-19T17:58:55.665696",
        "meta_mean_motion": 14.17078479,
        "meta_eccentricity": 0.00384848,
        "meta_inclination": 99.2236,
        "meta_ra_of_asc_node": 175.1295,
        "meta_arg_of_pericenter": 322.9711,
        "meta_mean_anomaly": 52.0116,
        "meta_ephemeris_type": 0,
        "meta_classification_type": "U",
        "meta_norad_cat_id": 30004,
        "meta_element_set_no": 999,
        "meta_rev_at_epoch": 97406,
        "meta_bstar": 0.00053911678,
        "meta_mean_motion_dot": 1.045e-05,
        "meta_mean_motion_ddot": 0,
        "tle_line1": "1 30004U 99025MD  25353.74925539  .00001045  00000+0  53912-3 0  9996",
        "tle_line2": "2 30004  99.2236 175.1295 0038484 322.9711  52.0116 14.17078479974061"
      },
      "geometry": {
        "type": "Point",
        "coordinates": [
          65.71688297942373,
          80.18414817642864
        ]
      }
    },
    {
      "type": "Feature",
      "properties": {
        "norad_id": 30005,
        "name": "FENGYUN 1C DEB",
        "group": "fengyun-1c-debris",
        "lat": -61.76335728863806,
        "lon": -26.341931582989268,
        "alt_km": 1256.3613093464392,
        "timestamp": "2025-12-20T09:36:01.918517+00:00",
        "meta_object_name": "FENGYUN 1C DEB",
        "meta_object_id": "1999-025ME",
        "meta_epoch": "2025-12-18T20:37:37.606656",
        "meta_mean_motion": 13.52232242,
        "meta_eccentricity": 0.03470849,
        "meta_inclination": 99.3023,
        "meta_ra_of_asc_node": 314.4408,
        "meta_arg_of_pericenter": 77.8968,
        "meta_mean_anomaly": 286.0828,
        "meta_ephemeris_type": 0,
        "meta_classification_type": "U",
        "meta_norad_cat_id": 30005,
        "meta_element_set_no": 999,
        "meta_rev_at_epoch": 93029,
        "meta_bstar": 0.0012018224,
        "meta_mean_motion_dot": 1.119e-05,
        "meta_mean_motion_ddot": 0,
        "tle_line1": "1 30005U 99025ME  25352.85946304  .00001119  00000+0  12018-2 0  9994",
        "tle_line2": "2 30005  99.3023 314.4408 0347084  77.8968 286.0828 13.52232242930294"
      },
      "geometry": {
        "type": "Point",
        "coordinates": [
          -26.341931582989268,
          -61.76335728863806
        ]
      }
    },
    {
      "type": "Feature",
      "properties": {
        "norad_id": 30007,
        "name": "FENGYUN 1C DEB",
        "group": "fengyun-1c-debris",
        "lat": 20.577182511959478,
        "lon": -107.37855860803397,
        "alt_km": 765.0130832615278,
        "timestamp": "2025-12-20T09:36:01.918528+00:00",
        "meta_object_name": "FENGYUN 1C DEB",
        "meta_object_id": "1999-025MG",
        "meta_epoch": "2025-12-19T16:47:11.202144",
        "meta_mean_motion": 14.25469844,
        "meta_eccentricity": 0.00655048,
        "meta_inclination": 99.1789,
        "meta_ra_of_asc_node": 255.3687,
        "meta_arg_of_pericenter": 355.3807,
        "meta_mean_anomaly": 32.0425,
        "meta_ephemeris_type": 0,
        "meta_classification_type": "U",
        "meta_norad_cat_id": 30007,
        "meta_element_set_no": 999,
        "meta_rev_at_epoch": 97455,
        "meta_bstar": 0.001219084,
        "meta_mean_motion_dot": 2.897e-05,
        "meta_mean_motion_ddot": 0,
        "tle_line1": "1 30007U 99025MG  25353.69943521  .00002897  00000+0  12191-2 0  9993",
        "tle_line2": "2 30007  99.1789 255.3687 0065504 355.3807  32.0425 14.25469844974555"
      },
      "geometry": {
        "type": "Point",
        "coordinates": [
          -107.37855860803397,
          20.577182511959478
        ]
      }
    },
    {
      "type": "Feature",
      "properties": {
        "norad_id": 30008,
        "name": "FENGYUN 1C DEB",
        "group": "fengyun-1c-debris",
        "lat": -35.001768909971545,
        "lon": -41.50983752672199,
        "alt_km": 704.0473267223169,
        "timestamp": "2025-12-20T09:36:01.918538+00:00",
        "meta_object_name": "FENGYUN 1C DEB",
        "meta_object_id": "1999-025MH",
        "meta_epoch": "2025-12-19T20:54:46.954656",
        "meta_mean_motion": 14.66432363,
        "meta_eccentricity": 0.00392498,
        "meta_inclination": 99.3695,
        "meta_ra_of_asc_node": 311.2479,
        "meta_arg_of_pericenter": 169.666,
        "meta_mean_anomaly": 245.5117,
        "meta_ephemeris_type": 0,
        "meta_classification_type": "U",
        "meta_norad_cat_id": 30008,
        "meta_element_set_no": 999,
        "meta_rev_at_epoch": 99164,
        "meta_bstar": 0.00098435658,
        "meta_mean_motion_dot": 5.449e-05,
        "meta_mean_motion_ddot": 0,
        "tle_line1": "1 30008U 99025MH  25353.87137679  .00005449  00000+0  98436-3 0  9996",
        "tle_line2": "2 30008  99.3695 311.2479 0039249 169.6660 245.5117 14.66432363991644"
      },
      "geometry": {
        "type": "Point",
        "coordinates": [
          -41.50983752672199,
          -35.001768909971545
        ]
      }
    },
    {
      "type": "Feature",
      "properties": {
        "norad_id": 30009,
        "name": "FENGYUN 1C DEB",
        "group": "fengyun-1c-debris",
        "lat": 49.41786693797893,
        "lon": -120.04809565832743,
        "alt_km": 918.8491160973917,
        "timestamp": "2025-12-20T09:36:01.918548+00:00",
        "meta_object_name": "FENGYUN 1C DEB",
        "meta_object_id": "1999-025MJ",
        "meta_epoch": "2025-12-19T21:01:05.623392",
        "meta_mean_motion": 14.04874146,
        "meta_eccentricity": 0.00641246,
        "meta_inclination": 99.0144,
        "meta_ra_of_asc_node": 48.7512,
        "meta_arg_of_pericenter": 314.8145,
        "meta_mean_anomaly": 44.782,
        "meta_ephemeris_type": 0,
        "meta_classification_type": "U",
        "meta_norad_cat_id": 30009,
        "meta_element_set_no": 999,
        "meta_rev_at_epoch": 96583,
        "meta_bstar": 0.00076379332,
        "meta_mean_motion_dot": 1.205e-05,
        "meta_mean_motion_ddot": 0,
        "tle_line1": "1 30009U 99025MJ  25353.87575953  .00001205  00000+0  76379-3 0  9996",
        "tle_line2": "2 30009  99.0144  48.7512 0064124 314.8145  44.7820 14.04874146965836"
      },
      "geometry": {
        "type": "Point",
        "coordinates": [
          -120.04809565832743,
          49.41786693797893
        ]
      }
    },
    {
      "type": "Feature",
      "properties": {
        "norad_id": 30010,
        "name": "FENGYUN 1C DEB",
        "group": "fengyun-1c-debris",
        "lat": 24.714738183482854,
        "lon": 11.0288591661904,
        "alt_km": 763.3811509409707,
        "timestamp": "2025-12-20T09:36:01.918558+00:00",
        "meta_object_name": "FENGYUN 1C DEB",
        "meta_object_id": "1999-025MK",
        "meta_epoch": "2025-12-19T19:26:50.076384",
        "meta_mean_motion": 14.24991891,
        "meta_eccentricity": 0.00729784,
        "meta_inclination": 99.0695,
        "meta_ra_of_asc_node": 186.2037,
        "meta_arg_of_pericenter": 188.9727,
        "meta_mean_anomaly": 182.7673,
        "meta_ephemeris_type": 0,
        "meta_classification_type": "U",
        "meta_norad_cat_id": 30010,
        "meta_element_set_no": 999,
        "meta_rev_at_epoch": 98361,
        "meta_bstar": 9.9002053e-05,
        "meta_mean_motion_dot": 1.91e-06,
        "meta_mean_motion_ddot": 0,
        "tle_line1": "1 30010U 99025MK  25353.81030181  .00000191  00000+0  99002-4 0  9993",
        "tle_line2": "2 30010  99.0695 186.2037 0072978 188.9727 182.7673 14.24991891983615"
      },
      "geometry": {
        "type": "Point",
        "coordinates": [
          11.0288591661904,
          24.714738183482854
        ]
      }
    },
    {
      "type": "Feature",
      "properties": {
        "norad_id": 30012,
        "name": "FENGYUN 1C DEB",
        "group": "fengyun-1c-debris",
        "lat": 69.77320470265988,
        "lon": -105.37783124297266,
        "alt_km": 840.6962812505972,
        "timestamp": "2025-12-20T09:36:01.918568+00:00",
        "meta_object_name": "FENGYUN 1C DEB",
        "meta_object_id": "1999-025MM",
        "meta_epoch": "2025-12-19T21:49:10.252416",
        "meta_mean_motion": 13.85770233,
        "meta_eccentricity": 0.01372138,
        "meta_inclination": 99.4633,
        "meta_ra_of_asc_node": 47.212,
        "meta_arg_of_pericenter": 126.6915,
        "meta_mean_anomaly": 54.1367,
        "meta_ephemeris_type": 0,
        "meta_classification_type": "U",
        "meta_norad_cat_id": 30012,
        "meta_element_set_no": 999,
        "meta_rev_at_epoch": 95647,
        "meta_bstar": 0.00021815651,
        "meta_mean_motion_dot": 2.24e-06,
        "meta_mean_motion_ddot": 0,
        "tle_line1": "1 30012U 99025MM  25353.90914644  .00000224  00000+0  21816-3 0  9994",
        "tle_line2": "2 30012  99.4633  47.2120 0137213 126.6915  54.1367 13.85770233956471"
      },
      "geometry": {
        "type": "Point",
        "coordinates": [
          -105.37783124297266,
          69.77320470265988
        ]
      }
    }
  ]
}